GLOBALSTAR M059         
1 25944U 99058B   25223.80542536 -.00000044  00000+0  52257-3 0  9994
2 25944  52.0024  56.7073 0001384  72.1178 300.2673 11.99981215580728
GLOBALSTAR M056         
1 25945U 99058C   25223.83239023 -.00000097  00000+0 -10767-3 0  9991
2 25945  51.9970  57.1660 0000538 354.6876  18.7934 12.04779814169335
GLOBALSTAR M031         
1 25946U 99058D   25223.55384771 -.00000039  00000+0  52166-3 0  9996
2 25946  51.9978 306.9453 0000847 282.3875  90.7866 12.16039389171288
GLOBALSTAR M039         
1 25961U 99062A   25223.90772151 -.00000070  00000+0  18799-3 0  9999
2 25961  51.9843  99.0024 0003189 100.2544 259.8683 12.62330510187253
GLOBALSTAR M034         
1 25962U 99062B   25223.47574593 -.00000072  00000+0  13835-3 0  9990
2 25962  51.9839 227.6697 0014071 146.2011 347.7500 11.79447705144918
GLOBALSTAR M029         
1 25963U 99062C   25223.93834562 -.00000061  00000+0  30875-3 0  9998
2 25963  51.9821 304.3397 0002518 217.3139 313.6436 11.99899471175810
GLOBALSTAR M061         
1 25964U 99062D   25223.83221315 -.00000104  00000+0 -38557-3 0  9998
2 25964  51.9804  51.5152 0006826  70.5509 302.9620 11.76775603127737
